NORAD_CAT_ID,OBJECT_NAME,OBJECT_TYPE,EPOCH,MEAN_MOTION,ECCENTRICITY,INCLINATION,RA_OF_ASC_NODE,ARG_OF_PERICENTER,MEAN_ANOMALY,BSTAR,MEAN_MOTION_DOT,MEAN_MOTION_DDOT,TLE_LINE0,TLE_LINE1,TLE_LINE2,SEMIMAJOR_AXIS,PERIOD,APOGEE,PERIGEE,DECAYED
52303.0,STARLINK-3742,PAYLOAD,2024-03-09 11:55:42,15.08841909,0.0001473,53.2151,137.0799,122.4105,237.703,-3.894e-05,-9.08e-06,0.0,0 STARLINK-3742,1 52303U 22041AU  24069.49701571 -.00000908  00000-0 -38940-4 0  9994,2 52303  53.2151 137.0799 0001473 122.4105 237.7030 15.08841909105494,6917.875,95.437,540.759,538.721,0.0
52303.0,STARLINK-3742,PAYLOAD,2024-03-09 13:31:06,15.08836586,0.0001324,53.2162,136.7825,84.4246,275.6897,-3.2672e-05,-8.08e-06,0.0,0 STARLINK-3742,1 52303U 22041AU  24069.56326626 -.00000808  00000-0 -32672-4 0  9991,2 52303  53.2162 136.7825 0001324  84.4246 275.6897 15.08836586105509,6917.891,95.438,540.672,538.84,0.0
52303.0,STARLINK-3742,PAYLOAD,2024-03-09 21:28:01,15.08840361,0.0001246,53.2157,135.2949,83.8026,276.3108,-2.9557e-05,-7.58e-06,0.0,0 STARLINK-3742,1 52303U 22041AU  24069.89446286 -.00000758  00000-0 -29557-4 0  9994,2 52303  53.2157 135.2949 0001246  83.8026 276.3108 15.08840361105550,6917.879,95.438,540.606,538.882,0.0
52303.0,STARLINK-3742,PAYLOAD,2024-03-10 03:49:34,15.08847687,0.0001792,53.2163,134.1085,124.0518,236.0644,-0.00016232,-2.871e-05,0.0,0 STARLINK-3742,1 52303U 22041AU  24070.15942265 -.00002871  00000-0 -16232-3 0  9996,2 52303  53.2163 134.1085 0001792 124.0518 236.0644 15.08847687105596,6917.857,95.437,540.962,538.482,0.0
52303.0,STARLINK-3742,PAYLOAD,2024-03-10 11:46:29,15.08846825,0.000157,53.2168,132.621,105.87,254.2465,-0.0001099,-2.037e-05,0.0,0 STARLINK-3742,1 52303U 22041AU  24070.49062105 -.00002037  00000-0 -10990-3 0  9998,2 52303  53.2168 132.6210 0001570 105.8700 254.2465 15.08846825105640,6917.86,95.437,540.811,538.638,0.0
52303.0,STARLINK-3742,PAYLOAD,2024-03-11 10:01:53,15.08833486,0.00014,53.2161,128.4574,84.6074,275.5077,0.0001984,2.87e-05,0.0,0 STARLINK-3742,1 52303U 22041AU  24071.41798246  .00002870  00000-0  19840-3 0  9999,2 52303  53.2161 128.4574 0001400  84.6074 275.5077 15.08833486105788,6917.9,95.438,540.734,538.797,0.0
52303.0,STARLINK-3742,PAYLOAD,2024-03-12 09:52:41,15.08836521,0.0001754,53.2176,123.9958,94.3355,265.7837,8.22e-05,1.02e-05,0.0,0 STARLINK-3742,1 52303U 22041AU  24072.41158587  .00001020  00000-0  82200-4 0  9995,2 52303  53.2176 123.9958 0001754  94.3355 265.7837 15.08836521105937,6917.891,95.438,540.969,538.543,0.0
52303.0,STARLINK-3742,PAYLOAD,2024-03-13 03:21:55,15.0884365,0.0001763,53.218,120.7242,102.4238,257.6951,6.7941e-05,7.93e-06,0.0,0 STARLINK-3742,1 52303U 22041AU  24073.14022114  .00000793  00000-0  67941-4 0  9993,2 52303  53.2180 120.7242 0001763 102.4238 257.6951 15.08843650106045,6917.869,95.437,540.954,538.515,0.0
52303.0,STARLINK-3742,PAYLOAD,2024-03-13 09:43:27,15.08838011,0.0001411,53.2169,119.536,92.6519,267.4634,3.3922e-05,2.52e-06,0.0,0 STARLINK-3742,1 52303U 22041AU  24073.40518485  .00000252  00000-0  33922-4 0  9995,2 52303  53.2169 119.5360 0001411  92.6519 267.4634 15.08838011106087,6917.886,95.438,540.728,538.775,0.0
52303.0,STARLINK-3742,PAYLOAD,2024-03-14 06:23:28,15.08836015,0.000145,53.216,115.6665,99.6469,260.4687,5.0048e-05,5.09e-06,0.0,0 STARLINK-3742,1 52303U 22041AU  24074.26630540  .00000509  00000-0  50048-4 0  9990,2 52303  53.2160 115.6665 0001450  99.6469 260.4687 15.08836015106215,6917.893,95.438,540.761,538.754,0.0
52303.0,STARLINK-3742,PAYLOAD,2024-03-14 07:58:52,15.08826961,0.0001291,53.216,115.3709,96.4314,263.6825,0.00015586,2.193e-05,0.0,0 STARLINK-3742,1 52303U 22041AU  24074.33254915  .00002193  00000-0  15586-3 0  9994,2 52303  53.2160 115.3709 0001291  96.4314 263.6825 15.08826961106227,6917.92,95.438,540.678,538.892,0.0
52303.0,STARLINK-3742,PAYLOAD,2024-03-15 03:03:29,15.08836243,0.0001302,53.216,111.7996,87.774,272.3401,2.127e-05,5.1e-07,0.0,0 STARLINK-3742,1 52303U 22041AU  24075.12742741  .00000051  00000-0  21270-4 0  9990,2 52303  53.2160 111.7996 0001302  87.7740 272.3401 15.08836243106348,6917.892,95.438,540.658,538.856,0.0
52303.0,STARLINK-3742,PAYLOAD,2024-03-15 12:35:48,15.08838429,0.0001474,53.2162,110.018,100.6292,259.4866,5.0712e-05,5.19e-06,0.0,0 STARLINK-3742,1 52303U 22041AU  24075.52486537  .00000519  00000-0  50712-4 0  9994,2 52303  53.2162 110.0180 0001474 100.6292 259.4866 15.08838429106400,6917.885,95.438,540.77,538.73,0.0
52303.0,STARLINK-3742,PAYLOAD,2024-03-16 07:40:26,15.0883356,0.0001431,53.2168,106.4487,95.7806,264.3349,9.8611e-05,1.282e-05,0.0,0 STARLINK-3742,1 52303U 22041AU  24076.31974883  .00001282  00000-0  98611-4 0  9996,2 52303  53.2168 106.4487 0001431  95.7806 264.3349 15.08833560106528,6917.9,95.438,540.755,538.775,0.0
52303.0,STARLINK-3742,PAYLOAD,2024-03-17 09:06:36,15.08841457,0.0001415,53.2165,101.6918,92.417,267.6984,5.9542e-05,6.6e-06,0.0,0 STARLINK-3742,1 52303U 22041AU  24077.37958694  .00000660  00000-0  59542-4 0  9994,2 52303  53.2165 101.6918 0001415  92.4170 267.6984 15.08841457106683,6917.876,95.437,540.72,538.762,0.0
52303.0,STARLINK-3742,PAYLOAD,2024-03-18 08:57:23,15.08838789,0.0001381,53.2165,97.2324,84.0264,276.0886,3.8783e-05,3.29e-06,0.0,0 STARLINK-3742,1 52303U 22041AU  24078.37319007  .00000329  00000-0  38783-4 0  9990,2 52303  53.2165  97.2324 0001381  84.0264 276.0886 15.08838789106833,6917.884,95.438,540.704,538.794,0.0
52303.0,STARLINK-3742,PAYLOAD,2024-03-19 07:12:47,15.08843882,0.0001492,53.2165,93.0698,78.4206,281.6953,8.4056e-05,1.05e-05,0.0,0 STARLINK-3742,1 52303U 22041AU  24079.30054678  .00001050  00000-0  84056-4 0  9990,2 52303  53.2165  93.0698 0001492  78.4206 281.6953 15.08843882106979,6917.869,95.437,540.766,538.701,0.0
52303.0,STARLINK-3742,PAYLOAD,2024-03-20 00:42:01,15.08843724,0.000151,53.2164,89.7994,77.4248,282.6913,9.9356e-05,1.294e-05,0.0,0 STARLINK-3742,1 52303U 22041AU  24080.02918541  .00001294  00000-0  99356-4 0  9998,2 52303  53.2164  89.7994 0001510  77.4248 282.6913 15.08843724107080,6917.869,95.437,540.779,538.689,0.0
52303.0,STARLINK-3742,PAYLOAD,2024-03-20 07:03:34,15.08840253,0.0001356,53.2161,88.6078,91.4541,268.6606,6.8377e-05,8e-06,0.0,0 STARLINK-3742,1 52303U 22041AU  24080.29414776  .00000800  00000-0  68377-4 0  9999,2 52303  53.2161  88.6078 0001356  91.4541 268.6606 15.08840253107120,6917.88,95.438,540.683,538.807,0.0
52303.0,STARLINK-3742,PAYLOAD,2024-03-21 05:18:58,15.08840665,0.0001455,53.2167,84.4439,100.3156,259.8001,3.2577e-06,-2.36e-06,0.0,0 STARLINK-3742,1 52303U 22041AU  24081.22150944 -.00000236  00000-0  32577-5 0  9995,2 52303  53.2167  84.4439 0001455 100.3156 259.8001 15.08840665107266,6917.878,95.438,540.75,538.737,0.0
52303.0,STARLINK-3742,PAYLOAD,2024-03-21 10:05:07,15.08841833,0.0001409,53.2163,83.5516,89.0119,271.1035,7.7809e-06,-1.64e-06,0.0,0 STARLINK-3742,1 52303U 22041AU  24081.42022869 -.00000164  00000-0  77809-5 0  9998,2 52303  53.2163  83.5516 0001409  89.0119 271.1035 15.08841833107294,6917.875,95.437,540.715,538.765,0.0
52303.0,STARLINK-3742,PAYLOAD,2024-03-22 06:45:08,15.08839246,0.0001387,53.2167,79.6855,88.2003,271.9148,6.201e-05,6.99e-06,0.0,0 STARLINK-3742,1 52303U 22041AU  24082.28134905  .00000699  00000-0  62010-4 0  9997,2 52303  53.2167  79.6855 0001387  88.2003 271.9148 15.08839246107421,6917.883,95.438,540.707,538.788,0.0
52303.0,STARLINK-3742,PAYLOAD,2024-03-23 05:00:33,15.08830048,0.0001437,53.2168,75.522,104.9659,255.1492,-7.5283e-06,-4.08e-06,0.0,0 STARLINK-3742,1 52303U 22041AU  24083.20871915 -.00000408  00000-0 -75283-5 0  9996,2 52303  53.2168  75.5220 0001437 104.9659 255.1492 15.08830048107564,6917.911,95.438,540.77,538.782,0.0
52303.0,STARLINK-3742,PAYLOAD,2024-03-23 08:11:19,15.08829831,0.0001363,53.2169,74.9289,100.7951,259.3195,-6.1847e-06,-3.86e-06,0.0,0 STARLINK-3742,1 52303U 22041AU  24083.34120006 -.00000386  00000-0 -61847-5 0  9995,2 52303  53.2169  74.9289 0001363 100.7951 259.3195 15.08829831107586,6917.911,95.438,540.719,538.834,0.0
52303.0,STARLINK-3742,PAYLOAD,2024-03-24 04:51:19,15.08843173,0.0001385,53.2173,71.0636,106.0023,254.1122,7.5297e-05,9.11e-06,0.0,0 STARLINK-3742,1 52303U 22041AU  24084.20231214  .00000911  00000-0  75297-4 0  9990,2 52303  53.2173  71.0636 0001385 106.0023 254.1122 15.08843173107711,6917.871,95.437,540.694,538.778,0.0
52303.0,STARLINK-3742,PAYLOAD,2024-03-24 06:26:42,15.08846438,0.000137,53.2173,70.7677,104.2431,255.8713,0.00011846,1.598e-05,0.0,0 STARLINK-3742,1 52303U 22041AU  24084.26854924  .00001598  00000-0  11846-3 0  9996,2 52303  53.2173  70.7677 0001370 104.2431 255.8713 15.08846438107721,6917.861,95.437,540.673,538.778,0.0
52303.0,STARLINK-3742,PAYLOAD,2024-03-25 04:42:07,15.08833011,0.0001561,53.2182,66.6039,108.4417,251.6745,0.00011889,1.604e-05,0.0,0 STARLINK-3742,1 52303U 22041AU  24085.19591959  .00001604  00000-0  11889-3 0  9990,2 52303  53.2182  66.6039 0001561 108.4417 251.6745 15.08833011107866,6917.902,95.438,540.847,538.687,0.0
52303.0,STARLINK-3742,PAYLOAD,2024-03-25 15:49:49,15.08837175,0.0001399,53.2179,64.5207,87.708,272.4072,9.3146e-05,1.195e-05,0.0,0 STARLINK-3742,1 52303U 22041AU  24085.65960135  .00001195  00000-0  93146-4 0  9999,2 52303  53.2179  64.5207 0001399  87.7080 272.4072 15.08837175107937,6917.889,95.438,540.722,538.786,0.0
52303.0,STARLINK-3742,PAYLOAD,2024-03-26 04:32:56,15.08827758,0.0002111,53.2192,62.1416,93.8093,266.314,-9.2343e-05,-1.757e-05,0.0,0 STARLINK-3742,1 52303U 22041AU  24086.18953845 -.00001757  00000-0 -92343-4 0  9992,2 52303  53.2192  62.1416 0002111  93.8093 266.3140 15.08827758108017,6917.918,95.438,541.243,538.322,0.0
52303.0,STARLINK-3742,PAYLOAD,2024-03-26 07:43:37,15.0889356,0.0001593,53.2183,61.5474,107.8712,252.2454,0.00042669,6.519e-05,0.0,0 STARLINK-3742,1 52303U 22041AU  24086.32195802  .00006519  00000-0  42669-3 0  9993,2 52303  53.2183  61.5474 0001593 107.8712 252.2454 15.08893560108039,6917.717,95.434,540.684,538.48,0.0
